{"type": "FeatureCollection", "features": [ {"type": "Feature", "properties": {"norad_id": 37926, "name": "FENGYUN 1C DEB", "group": "fengyun-1c-debris", "lat": -52.64353407243642, "lon": -135.7340085762032, "alt_km": 783.7514169208325, "timestamp": "2025-12-18T17:50:15.246180+00:00", "meta": {"OBJECT_NAME": "FENGYUN 1C DEB", "OBJECT_ID": "1999-025EPB", "EPOCH": "2025-12-17T23:02:00.359232", "MEAN_MOTION": 14.24254635, "ECCENTRICITY": 0.00543945, "INCLINATION": 98.7241, "RA_OF_ASC_NODE": 55.0926, "ARG_OF_PERICENTER": 206.4638, "MEAN_ANOMALY": 331.673, "EPHEMERIS_TYPE": 0, "CLASSIFICATION_TYPE": "U", "NORAD_CAT_ID": 37926, "ELEMENT_SET_NO": 999, "REV_AT_EPOCH": 74344, "BSTAR": 0.0011908764, "MEAN_MOTION_DOT": 2.746e-05, "MEAN_MOTION_DDOT": 0}, "tle": {"line1": "1 37926U 99025EPB 25351.95972638  .00002746  00000+0  11909-2 0  9997", "line2": "2 37926  98.7241  55.0926 0054394 206.4638 331.6730 14.24254635743442"}}, "geometry": {"type": "Point", "coordinates": [-135.7340085762032, -52.64353407243642]}}, {"type": "Feature", "properties": {"norad_id": 37927, "name": "FENGYUN 1C DEB", "group": "fengyun-1c-debris", "lat": 30.787218479052523, "lon": -37.781770425320744, "alt_km": 654.8138819390024, "timestamp": "2025-12-18T17:50:15.246190+00:00", "meta": {"OBJECT_NAME": "FENGYUN 1C DEB", "OBJECT_ID": "1999-025EPC", "EPOCH": "2025-12-17T05:16:20.802144", "MEAN_MOTION": 14.71959072, "ECCENTRICITY": 0.0008325, "INCLINATION": 98.8067, "RA_OF_ASC_NODE": 135.2699, "ARG_OF_PERICENTER": 262.0279, "MEAN_ANOMALY": 97.9981, "EPHEMERIS_TYPE": 0, "CLASSIFICATION_TYPE": "U", "NORAD_CAT_ID": 37927, "ELEMENT_SET_NO": 999, "REV_AT_EPOCH": 65182, "BSTAR": 0.0033385946, "MEAN_MOTION_DOT": 0.00020951, "MEAN_MOTION_DDOT": 0}, "tle": {"line1": "1 37927U 99025EPC 25351.21968521  .00020951  00000+0  33386-2 0  9994", "line2": "2 37927  98.8067 135.2699 0008325 262.0279  97.9981 14.71959072651829"}}, "geometry": {"type": "Point", "coordinates": [-37.781770425320744, 30.787218479052523]}}, {"type": "Feature", "properties": {"norad_id": 37928, "name": "FENGYUN 1C DEB", "group": "fengyun-1c-debris", "lat": 56.45352255160497, "lon": -146.1387746138127, "alt_km": 723.647539784004, "timestamp": "2025-12-18T17:50:15.246200+00:00", "meta": {"OBJECT_NAME": "FENGYUN 1C DEB", "OBJECT_ID": "1999-025EPD", "EPOCH": "2025-12-15T09:22:08.363712", "MEAN_MOTION": 14.37112428, "ECCENTRICITY": 0.00730461, "INCLINATION": 98.9158, "RA_OF_ASC_NODE": 224.0834, "ARG_OF_PERICENTER": 25.3937, "MEAN_ANOMALY": 335.0809, "EPHEMERIS_TYPE": 0, "CLASSIFICATION_TYPE": "U", "NORAD_CAT_ID": 37928, "ELEMENT_SET_NO": 999, "REV_AT_EPOCH": 81230, "BSTAR": 0.00052318414, "MEAN_MOTION_DOT": 1.555e-05, "MEAN_MOTION_DDOT": 0}, "tle": {"line1": "1 37928U 99025EPD 25349.39037458  .00001555  00000+0  52318-3 0  9993", "line2": "2 37928  98.9158 224.0834 0073046  25.3937 335.0809 14.37112428812308"}}, "geometry": {"type": "Point", "coordinates": [-146.1387746138127, 56.45352255160497]}}, {"type": "Feature", "properties": {"norad_id": 38116, "name": "FENGYUN 1C DEB", "group": "fengyun-1c-debris", "lat": 2.2582376486131026, "lon": 31.0081740407648, "alt_km": 869.3291893311225, "timestamp": "2025-12-18T17:50:15.246210+00:00", "meta": {"OBJECT_NAME": "FENGYUN 1C DEB", "OBJECT_ID": "1999-025EPM", "EPOCH": "2025-12-13T09:07:05.482848", "MEAN_MOTION": 14.17018726, "ECCENTRICITY": 0.00724721, "INCLINATION": 98.7128, "RA_OF_ASC_NODE": 26.1003, "ARG_OF_PERICENTER": 144.8988, "MEAN_ANOMALY": 233.7196, "EPHEMERIS_TYPE": 0, "CLASSIFICATION_TYPE": "U", "NORAD_CAT_ID": 38116, "ELEMENT_SET_NO": 999, "REV_AT_EPOCH": 64494, "BSTAR": 0.00072544359, "MEAN_MOTION_DOT": 1.454e-05, "MEAN_MOTION_DDOT": 0}, "tle": {"line1": "1 38116U 99025EPM 25347.37992457  .00001454  00000+0  72544-3 0  9999", "line2": "2 38116  98.7128  26.1003 0072472 144.8988 233.7196 14.17018726644947"}}, "geometry": {"type": "Point", "coordinates": [31.0081740407648, 2.2582376486131026]}}, {"type": "Feature", "properties": {"norad_id": 38121, "name": "FENGYUN 1C DEB", "group": "fengyun-1c-debris", "lat": 16.024380138473948, "lon": 141.7750547060952, "alt_km": 827.7203395329025, "timestamp": "2025-12-18T17:50:15.246220+00:00", "meta": {"OBJECT_NAME": "FENGYUN 1C DEB", "OBJECT_ID": "1999-025EPS", "EPOCH": "2025-12-13T04:20:01.430304", "MEAN_MOTION": 14.21784212, "ECCENTRICITY": 0.02064826, "INCLINATION": 99.1148, "RA_OF_ASC_NODE": 138.6695, "ARG_OF_PERICENTER": 126.4735, "MEAN_ANOMALY": 235.5664, "EPHEMERIS_TYPE": 0, "CLASSIFICATION_TYPE": "U", "NORAD_CAT_ID": 38121, "ELEMENT_SET_NO": 999, "REV_AT_EPOCH": 83926, "BSTAR": 0.0016630973, "MEAN_MOTION_DOT": 4.5e-05, "MEAN_MOTION_DDOT": 0}, "tle": {"line1": "1 38121U 99025EPS 25347.18057211  .00004500  00000+0  16631-2 0  9993", "line2": "2 38121  99.1148 138.6695 0206482 126.4735 235.5664 14.21784212839268"}}, "geometry": {"type": "Point", "coordinates": [141.7750547060952, 16.024380138473948]}}, {"type": "Feature", "properties": {"norad_id": 38122, "name": "FENGYUN 1C DEB", "group": "fengyun-1c-debris", "lat": 40.55544045382341, "lon": -12.155906131178867, "alt_km": 764.3034371124941, "timestamp": "2025-12-18T17:50:15.246230+00:00", "meta": {"OBJECT_NAME": "FENGYUN 1C DEB", "OBJECT_ID": "1999-025EPT", "EPOCH": "2025-12-17T06:41:14.723232", "MEAN_MOTION": 14.42662555, "ECCENTRICITY": 0.02278663, "INCLINATION": 98.3178, "RA_OF_ASC_NODE": 353.606, "ARG_OF_PERICENTER": 143.1818, "MEAN_ANOMALY": 218.5268, "EPHEMERIS_TYPE": 0, "CLASSIFICATION_TYPE": "U", "NORAD_CAT_ID": 38122, "ELEMENT_SET_NO": 999, "REV_AT_EPOCH": 67804, "BSTAR": 0.00027565513, "MEAN_MOTION_DOT": 1.203e-05, "MEAN_MOTION_DDOT": 0}, "tle": {"line1": "1 38122U 99025EPT 25351.27864263  .00001203  00000+0  27566-3 0  9999", "line2": "2 38122  98.3178 353.6060 0227866 143.1818 218.5268 14.42662555678041"}}, "geometry": {"type": "Point", "coordinates": [-12.155906131178867, 40.55544045382341]}}, {"type": "Feature", "properties": {"norad_id": 38124, "name": "FENGYUN 1C DEB", "group": "fengyun-1c-debris", "lat": -58.677964158160464, "lon": -42.99771255502311, "alt_km": 850.315957615032, "timestamp": "2025-12-18T17:50:15.246240+00:00", "meta": {"OBJECT_NAME": "FENGYUN 1C DEB", "OBJECT_ID": "1999-025EPV", "EPOCH": "2025-12-13T03:48:53.053632", "MEAN_MOTION": 13.40935403, "ECCENTRICITY": 0.03557245, "INCLINATION": 97.8087, "RA_OF_ASC_NODE": 299.6458, "ARG_OF_PERICENTER": 305.0279, "MEAN_ANOMALY": 51.7953, "EPHEMERIS_TYPE": 0, "CLASSIFICATION_TYPE": "U", "NORAD_CAT_ID": 38124, "ELEMENT_SET_NO": 999, "REV_AT_EPOCH": 54587, "BSTAR": 0.00060323956, "MEAN_MOTION_DOT": 4.51e-06, "MEAN_MOTION_DDOT": 0}, "tle": {"line1": "1 38124U 99025EPV 25347.15894738  .00000451  00000+0  60324-3 0  9996", "line2": "2 38124  97.8087 299.6458 0355724 305.0279  51.7953 13.40935403545875"}}, "geometry": {"type": "Point", "coordinates": [-42.99771255502311, -58.677964158160464]}}, {"type": "Feature", "properties": {"norad_id": 38130, "name": "FENGYUN 1C DEB", "group": "fengyun-1c-debris", "lat": 62.12733534826486, "lon": 27.249616086032084, "alt_km": 1092.3468193389635, "timestamp": "2025-12-18T17:50:15.246249+00:00", "meta": {"OBJECT_NAME": "FENGYUN 1C DEB", "OBJECT_ID": "1999-025EQB", "EPOCH": "2025-11-28T09:19:02.490528", "MEAN_MOTION": 13.7720595, "ECCENTRICITY": 0.02085156, "INCLINATION": 98.6035, "RA_OF_ASC_NODE": 25.4413, "ARG_OF_PERICENTER": 263.5047, "MEAN_ANOMALY": 94.2329, "EPHEMERIS_TYPE": 0, "CLASSIFICATION_TYPE": "U", "NORAD_CAT_ID": 38130, "ELEMENT_SET_NO": 999, "REV_AT_EPOCH": 69085, "BSTAR": 0.0016964005, "MEAN_MOTION_DOT": 1.933e-05, "MEAN_MOTION_DDOT": 0}, "tle": {"line1": "1 38130U 99025EQB 25332.38822327  .00001933  00000+0  16964-2 0  9993", "line2": "2 38130  98.6035  25.4413 0208515 263.5047  94.2329 13.77205950690851"}}, "geometry": {"type": "Point", "coordinates": [27.249616086032084, 62.12733534826486]}}, {"type": "Feature", "properties": {"norad_id": 38135, "name": "FENGYUN 1C DEB", "group": "fengyun-1c-debris", "lat": 32.44043161428442, "lon": 43.89548632595922, "alt_km": 655.0912079375421, "timestamp": "2025-12-18T17:50:15.246259+00:00", "meta": {"OBJECT_NAME": "FENGYUN 1C DEB", "OBJECT_ID": "1999-025EQG", "EPOCH": "2025-12-04T09:59:10.811040", "MEAN_MOTION": 14.2524882, "ECCENTRICITY": 0.0223375, "INCLINATION": 98.6606, "RA_OF_ASC_NODE": 35.2993, "ARG_OF_PERICENTER": 95.5388, "MEAN_ANOMALY": 267.1312, "EPHEMERIS_TYPE": 0, "CLASSIFICATION_TYPE": "U", "NORAD_CAT_ID": 38135, "ELEMENT_SET_NO": 999, "REV_AT_EPOCH": 60922, "BSTAR": 0.00083169, "MEAN_MOTION_DOT": 2.494e-05, "MEAN_MOTION_DDOT": 0}, "tle": {"line1": "1 38135U 99025EQG 25338.41609735  .00002494  00000+0  83169-3 0  9999", "line2": "2 38135  98.6606  35.2993 0223375  95.5388 267.1312 14.25248820609225"}}, "geometry": {"type": "Point", "coordinates": [43.89548632595922, 32.44043161428442]}}, {"type": "Feature", "properties": {"norad_id": 38137, "name": "FENGYUN 1C DEB", "group": "fengyun-1c-debris", "lat": -34.96379609192739, "lon": 41.62707382908634, "alt_km": 877.3130720821155, "timestamp": "2025-12-18T17:50:15.246269+00:00", "meta": {"OBJECT_NAME": "FENGYUN 1C DEB", "OBJECT_ID": "1999-025EQJ", "EPOCH": "2025-12-11T22:03:53.453088", "MEAN_MOTION": 14.06158007, "ECCENTRICITY": 0.0046494, "INCLINATION": 98.8649, "RA_OF_ASC_NODE": 28.6821, "ARG_OF_PERICENTER": 71.683, "MEAN_ANOMALY": 288.9388, "EPHEMERIS_TYPE": 0, "CLASSIFICATION_TYPE": "U", "NORAD_CAT_ID": 38137, "ELEMENT_SET_NO": 999, "REV_AT_EPOCH": 63697, "BSTAR": 0.00049172, "MEAN_MOTION_DOT": 7.73e-06, "MEAN_MOTION_DDOT": 0}, "tle": {"line1": "1 38137U 99025EQJ 25345.91936867  .00000773  00000+0  49172-3 0  9997", "line2": "2 38137  98.8649  28.6821 0046494  71.6830 288.9388 14.06158007636976"}}, "geometry": {"type": "Point", "coordinates": [41.62707382908634, -34.96379609192739]}}]}